NORAD_CAT_ID,OBJECT_NAME,OBJECT_TYPE,EPOCH,MEAN_MOTION,ECCENTRICITY,INCLINATION,RA_OF_ASC_NODE,ARG_OF_PERICENTER,MEAN_ANOMALY,BSTAR,MEAN_MOTION_DOT,MEAN_MOTION_DDOT,TLE_LINE0,TLE_LINE1,TLE_LINE2,SEMIMAJOR_AXIS,PERIOD,APOGEE,PERIGEE,DECAYED
53550.0,STARLINK-4518,PAYLOAD,2022-10-02 06:00:00,15.55446499,0.0001225,53.2174,300.1733,62.3238,216.887,-0.017128,-0.01078642,0.0,0 STARLINK-4518,1 53550U 22101Z   22275.25001157 -.01078642  00000-0 -17128-1 0  9993,2 53550  53.2174 300.1733 0001225  62.3238 216.8870 15.55446499  6856,6778.9919999999975,92.578,401.687,400.027,0.0
53550.0,STARLINK-4518,PAYLOAD,2022-10-02 14:00:01,15.54700986,0.0001286999999999,53.2169,298.5696,44.1213,302.1955,-0.017889,-0.01094296,0.0,0 STARLINK-4518,1 53550U 22101Z   22275.58334491 -.01094296  00000-0 -17889-1 0  9996,2 53550  53.2169 298.5696 0001287  44.1213 302.1955 15.54700986  1308,6781.159000000002,92.622,403.897,402.151,0.0
53550.0,STARLINK-4518,PAYLOAD,2022-10-02 22:00:00,15.53912771,0.000138,53.2174,296.9656,42.38800000000001,10.1478,-0.017758,-0.01058727,0.0,0 STARLINK-4518,1 53550U 22101Z   22275.91667824 -.01058727  00000-0 -17758-1 0  9996,2 53550  53.2174 296.9656 0001380  42.3880  10.1478 15.53912771  1308,6783.4519999999975,92.669,406.253,404.381,0.0
53550.0,STARLINK-4518,PAYLOAD,2022-10-03 06:00:00,15.53170409,0.0001324,53.2173,295.3644,58.5181,59.2993,-0.0186789999999999,-0.01081458,0.0,0 STARLINK-4518,1 53550U 22101Z   22276.25001157 -.01081458  00000-0 -18679-1 0  9995,2 53550  53.2173 295.3644 0001324  58.5181  59.2993 15.53170409  7012,6785.613,92.714,408.377,406.58,0.0
53550.0,STARLINK-4518,PAYLOAD,2022-10-03 14:00:01,15.52429067,0.0001554999999999,53.2166,293.7662,47.3553,134.8283,-0.01962,-0.01103476,0.0,0 STARLINK-4518,1 53550U 22101Z   22276.58334491 -.01103476  00000-0 -19620-1 0  9993,2 53550  53.2166 293.7662 0001555  47.3553 134.8283 15.52429067  1305,6787.773,92.758,410.694,408.583,0.0
53550.0,STARLINK-4518,PAYLOAD,2022-10-03 22:00:00,15.51634402,0.0001325,53.2173,292.1678,57.4041,188.2631,-0.019274,-0.01057729,0.0,0 STARLINK-4518,1 53550U 22101Z   22276.91667824 -.01057729  00000-0 -19274-1 0  9993,2 53550  53.2173 292.1678 0001325  57.4041 188.2631 15.51634402  1302,6790.090999999999,92.805,412.855,411.056,0.0
53550.0,STARLINK-4518,PAYLOAD,2022-10-04 14:00:01,15.50108359,0.0001248,53.2166,288.9787,55.1584,314.6979,-0.0059447,-0.0032673,0.0,0 STARLINK-4518,1 53550U 22101Z   22277.58334491 -.00326730  00000-0 -59447-2 0  9995,2 53550  53.2166 288.9787 0001248  55.1584 314.6979 15.50108359  1305,6794.545999999999,92.897,417.259,415.56300000000016,0.0
53550.0,STARLINK-4518,PAYLOAD,2022-10-04 22:00:00,15.49884654,0.0001234,53.2173,287.3845,70.7667,0.1236,1.1859e-05,2.22e-06,0.0,0 STARLINK-4518,1 53550U 22101Z   22277.91667824  .00000222  00000-0  11859-4 0  9991,2 53550  53.2173 287.3845 0001234  70.7667   0.1236 15.49884654  7273,6795.2,92.91,417.904,416.227,0.0
53550.0,STARLINK-4518,PAYLOAD,2022-10-05 14:00:01,15.49942948,0.0001737,53.2152,284.1928,54.3399,138.5116,-0.0012934,-0.00073328,0.0,0 STARLINK-4518,1 53550U 22101Z   22278.58335648 -.00073328  00000-0 -12934-2 0  9993,2 53550  53.2152 284.1928 0001737  54.3399 138.5116 15.49942948  7370,6795.03,92.907,418.075,415.715,0.0
53550.0,STARLINK-4518,PAYLOAD,2022-10-05 22:00:00,15.49847195,0.0001521999999999,53.2157,282.5979,58.5431,195.2116,0.0011281,0.00064014,0.0,0 STARLINK-4518,1 53550U 22101Z   22278.91667824  .00064014  00000-0  11281-2 0  9998,2 53550  53.2157 282.5979 0001522  58.5431 195.2116 15.49847195  1303,6795.31,92.912,418.209,416.14,0.0
53550.0,STARLINK-4518,PAYLOAD,2022-10-06 06:00:00,15.49893496,0.0001663,53.216,281.0065,54.5984,260.0509,6.6528e-05,3.327e-05,0.0,0 STARLINK-4518,1 53550U 22101Z   22279.25001157  .00003327  00000-0  66528-4 0  9993,2 53550  53.2160 281.0065 0001663  54.5984 260.0509 15.49893496  7478,6795.174,92.91,418.169,415.909,0.0
53550.0,STARLINK-4518,PAYLOAD,2022-10-06 14:00:01,15.49935253,0.0001608,53.2155,279.4135,50.1124,325.4526,-0.00097195,-0.00055326,0.0,0 STARLINK-4518,1 53550U 22101Z   22279.58334491 -.00055326  00000-0 -97195-3 0  9990,2 53550  53.2155 279.4135 0001608  50.1124 325.4526 15.49935253  1307,6795.052,92.907,418.01,415.825,0.0
53550.0,STARLINK-4518,PAYLOAD,2022-10-06 22:42:55,15.49852307,0.0001329,53.2157,277.6768,59.2407,183.6056,0.001105,0.00062694,0.0,0 STARLINK-4518,1 53550U 22101Z   22279.94646991  .00062694  00000-0  11050-2 0  9990,2 53550  53.2157 277.6768 0001329  59.2407 183.6056 15.49852307  1305,6795.295,92.912,418.06300000000016,416.257,0.0
53550.0,STARLINK-4518,PAYLOAD,2022-10-07 14:00:01,15.49857528,0.0001732,53.2153,274.6347,50.5364,147.7471,-8.2744e-06,-9.21e-06,0.0,0 STARLINK-4518,1 53550U 22101Z   22280.58334491 -.00000921  00000-0 -82744-5 0  9999,2 53550  53.2153 274.6347 0001732  50.5364 147.7471 15.49857528  7684,6795.279,92.912,418.321,415.968,0.0
53550.0,STARLINK-4518,PAYLOAD,2022-10-07 22:00:00,15.49845627,0.0001623,53.2154,273.0393,58.2479,200.9203,0.0011994999999999,0.00068127,0.0,0 STARLINK-4518,1 53550U 22101Z   22280.91667824  .00068127  00000-0  11995-2 0  9992,2 53550  53.2154 273.0393 0001623  58.2479 200.9203 15.49845627  1305,6795.314,92.912,418.282,416.076,0.0
53550.0,STARLINK-4518,PAYLOAD,2022-10-08 14:00:01,15.4988751,0.0001882,53.2171,269.8618,57.3189,323.6279,-5.5639e-05,-3.609e-05,0.0,0 STARLINK-4518,1 53550U 22101Z   22281.58334491 -.00003609  00000-0 -55639-4 0  9998,2 53550  53.2171 269.8618 0001882  57.3189 323.6279 15.49887510  7840,6795.191999999999,92.91,418.336,415.778,0.0
53550.0,STARLINK-4518,PAYLOAD,2022-10-08 22:00:00,15.50057422,0.0001686,53.2168,268.2623,50.8782,31.0412,-0.0074193,-0.00403069,0.0,0 STARLINK-4518,1 53550U 22101Z   22281.91667824 -.00403069  00000-0 -74193-2 0  9992,2 53550  53.2168 268.2623 0001686  50.8782  31.0412 15.50057422  7891,6794.695,92.9,417.706,415.415,0.0
53550.0,STARLINK-4518,PAYLOAD,2022-10-09 06:00:00,15.49712582,0.0001486999999999,53.2175,266.6753,56.6077,86.292,-0.0100209999999999,-0.0052913999999999,0.0,0 STARLINK-4518,1 53550U 22101Z   22282.25001157 -.00529140  00000-0 -10021-1 0  9999,2 53550  53.2175 266.6753 0001487  56.6077  86.2920 15.49712582  7940,6795.703,92.92,418.579,416.5580000000001,0.0
53550.0,STARLINK-4518,PAYLOAD,2022-10-09 14:00:01,15.493128099999998,0.0001786999999999,53.217,265.0833,42.2006,161.2193,-0.019327,-0.00983077,0.0,0 STARLINK-4518,1 53550U 22101Z   22282.58334491 -.00983077  00000-0 -19327-1 0  9996,2 53550  53.2170 265.0833 0001787  42.2006 161.2193 15.49312810  1303,6796.871999999999,92.944,419.952,417.523,0.0
53550.0,STARLINK-4518,PAYLOAD,2022-10-09 22:00:00,15.48606706,0.0001649,53.2175,263.4928,40.3479,222.8734,-0.021462,-0.01057298,0.0,0 STARLINK-4518,1 53550U 22101Z   22282.91667824 -.01057298  00000-0 -21462-1 0  9993,2 53550  53.2175 263.4928 0001649  40.3479 222.8734 15.48606706  1309,6798.938,92.987,421.924,419.682,0.0
53550.0,STARLINK-4518,PAYLOAD,2022-10-10 06:00:00,15.47848946,0.0001696,53.2175,261.9065,34.9223,287.2106,-0.022112,-0.01060353,0.0,0 STARLINK-4518,1 53550U 22101Z   22283.25001157 -.01060353  00000-0 -22112-1 0  9991,2 53550  53.2175 261.9065 0001696  34.9223 287.2106 15.47848946  8096,6801.156999999997,93.032,424.175,421.86800000000005,0.0
53550.0,STARLINK-4518,PAYLOAD,2022-10-10 14:00:01,15.4708881,0.0001706,53.2173,260.3191,31.1622,348.9723,-0.022684,-0.01059322,0.0,0 STARLINK-4518,1 53550U 22101Z   22283.58334491 -.01059322  00000-0 -22684-1 0  9995,2 53550  53.2173 260.3191 0001706  31.1622 348.9723 15.47088810  1304,6803.384,93.078,426.41,424.089,0.0
53550.0,STARLINK-4518,PAYLOAD,2022-10-10 22:00:01,15.46327456,0.0001545,53.2175,258.7331,42.2111,35.0769,-0.023206,-0.01055666,0.0,0 STARLINK-4518,1 53550U 22101Z   22283.91668981 -.01055666  00000-0 -23206-1 0  9994,2 53550  53.2175 258.7331 0001545  42.2111  35.0769 15.46327456  1305,6805.6169999999975,93.124,428.534,426.431,0.0
53550.0,STARLINK-4518,PAYLOAD,2022-10-11 06:00:00,15.45569643,0.0001701,53.2174,257.1524,43.2126,90.1844,-0.023885,-0.010582,0.0,0 STARLINK-4518,1 53550U 22101Z   22284.25001157 -.01058200  00000-0 -23885-1 0  9998,2 53550  53.2174 257.1524 0001701  43.2126  90.1844 15.45569643  8254,6807.842,93.17,430.865,428.549,0.0
53550.0,STARLINK-4518,PAYLOAD,2022-10-11 14:00:01,15.4481036,0.0001411,53.2173,255.5703,61.081,127.5795,-0.024533,-0.01058712,0.0,0 STARLINK-4518,1 53550U 22101Z   22284.58334491 -.01058712  00000-0 -24533-1 0  9993,2 53550  53.2173 255.5703 0001411  61.0810 127.5795 15.44810360  1303,6810.071999999999,93.215,432.898,430.976,0.0
53550.0,STARLINK-4518,PAYLOAD,2022-10-11 22:00:00,15.44054982,0.0001499,53.2171,253.9891,49.1897,193.8191,-0.025279,-0.01062656,0.0,0 STARLINK-4518,1 53550U 22101Z   22284.91667824 -.01062656  00000-0 -25279-1 0  9999,2 53550  53.2171 253.9891 0001499  49.1897 193.8191 15.44054982  1305,6812.293000000002,93.261,435.179,433.137,0.0
53550.0,STARLINK-4518,PAYLOAD,2022-10-12 06:00:00,15.43290853,0.0001406999999999,53.2173,252.4146,53.5651,242.8818,-0.025802,-0.01057276,0.0,0 STARLINK-4518,1 53550U 22101Z   22285.25001157 -.01057276  00000-0 -25802-1 0  9992,2 53550  53.2173 252.4146 0001407  53.5651 242.8818 15.43290853  8407,6814.542,93.307,437.366,435.448,0.0
53550.0,STARLINK-4518,PAYLOAD,2022-10-12 14:00:01,15.42531986,0.0001308,53.2174,250.8378,49.277,299.6953,-0.026512,-0.01073488,0.0,0 STARLINK-4518,1 53550U 22101Z   22285.58334491 -.01073488  00000-0 -26512-1 0  9990,2 53550  53.2174 250.8378 0001308  49.2770 299.6953 15.42531986  1307,6816.776999999999,93.353,439.533,437.75,0.0
53550.0,STARLINK-4518,PAYLOAD,2022-10-12 22:00:00,15.41769806,0.0001361,53.2174,249.2631,50.4994,350.0861,-0.0270529999999999,-0.01068103,0.0,0 STARLINK-4518,1 53550U 22101Z   22285.91667824 -.01068103  00000-0 -27053-1 0  9995,2 53550  53.2174 249.2631 0001361  50.4994 350.0861 15.41769806  1305,6819.023,93.399,441.816,439.96,0.0
